#dP2019  5 14  0  0  0.00000000      96 __u+U ITR00 FIT  IAC
## 2053 172800.00000000   900.00000000 58617 0.0000000000000
+   91   C02C05C06C07C08C09C10C11C12C13C14C16E01E02E03E04E05
+        E07E08E09E11E12E13E14E15E18E19E21E24E25E26E27E30E31
+        E33E36G01G02G03G04G05G06G07G08G09G10G11G12G13G14G15
+        G16G17G18G19G20G21G22G23G24G25G26G27G28G29G30G31G32
+        R01R02R03R04R05R07R08R09R10R11R13R14R15R16R17R18R19
+        R20R21R22R23R24R26  0  0  0  0  0  0  0  0  0  0  0
++        12 12  9  9  9  8  8  8  8  8  8  9  6  5  5  5  5
++         6  5  5  6  6  5  6  5  5  5  5  6  5  6  5  5  5
++         6  6  4  3  4  4  3  3  4  4  3  4  4  3  4  4  4
++         4  4  4  4  4  3  3  4  4  4  4  4  4  3  4  4  4
++         6  6  6  6  5  5  5  5  5  6  6  5  5  5  5  5  5
++         5  5  5  5  5  8  0  0  0  0  0  0  0  0  0  0  0
%c M  cc GPS ccc cccc cccc cccc cccc ccccc ccccc ccccc ccccc
%c cc cc ccc ccc cccc cccc cccc cccc ccccc ccccc ccccc ccccc
%f  0.0000000  0.000000000  0.00000000000  0.000000000000000
%f  0.0000000  0.000000000  0.00000000000  0.000000000000000
%i    0    0    0    0      0      0      0      0         0
%i    0    0    0    0      0      0      0      0         0
/*                                                          
/*   RSA / INFORMATION & ANALYSIS CENTER (IAC) OF MCC       
/*   ULTRA-RAPID DETERMINATION                              
/* PCV:IGS14_2045 OL/AL:FES2004  NONE     YN ORB:CoN CLK:CoN
*  2019 05 14  7 45  0.00000000
PC02   4337.610925  41948.037077   -250.871874    160.750824
PC05  21730.001021  36099.731482   -259.184735   -122.956149
PC06 -15624.935114  20107.789534 -33320.564643    833.778796
PC07 -23545.883601  33488.934547   9126.653055    -14.458212
PC08  -7510.657031  34032.876892  24014.229030    157.183753
PC09   3728.911684  26326.288341 -32439.616612    761.882159
PC10 -10427.996734  34505.291919  21688.775645   -750.334354
PC11  20974.312898   3262.895989 -18092.081473   -151.349508
PC12  16752.258484  21338.423092   6769.014210    665.798819
PC13   2623.229382  40964.528712  10229.441416   -711.872211
PC14  24650.781083   1444.510798 -12889.564490    617.559706
PC16 -10464.631664  21916.720249 -34437.282400   -746.170253
PE01   7501.466281  16330.121318  23514.505683   -604.312014
PE02  -7550.218037 -16288.065292 -23538.527482     60.177460
PE03 -18706.636643 -14393.096870  17862.279347   -165.910857
PE04  29368.032121   3480.302182  -1257.242926   -281.462835
PE05   2988.824711 -16937.451225  24099.732589   -484.117330
PE07 -22837.350908   9557.650851 -16205.420666   -187.297389
PE08 -29397.106416  -3188.663808   1198.246409   6356.483950
PE09  22743.418955  -9673.940480  16313.264887   6440.165676
PE11  11808.336660 -12466.821882 -24116.954693   5695.024964
PE12  19407.448551   9080.307638 -20406.823936   6397.171038
PE13 -11797.146750  12298.264129  24206.595800    387.024653
PE14 -16876.768519   5706.077512  15901.409375   -566.100485
PE15 -19372.765168  -8679.521279  20640.279144    910.502551
PE18  15837.129206 -14153.746365 -24454.745586   -663.796182
PE19  16943.406650  14925.280937 -19127.755127     -6.438287
PE21  -9126.251932  25897.402011  11040.556548   -533.881824
PE24  20286.730950 -20194.073490   7493.598753   6082.263886
PE25   9170.371150 -25910.166756 -10996.460648   1804.984913
PE26   2422.048208  26213.824521  13534.010352   4571.616842
PE27 -20277.901128  20077.519493  -7866.736961    470.288243
PE30 -19673.586643   2649.553918 -21971.776340   4873.361857
PE31  19513.442147  -2495.837777  22120.567338   -464.726657
PE33  15619.723358  24637.805094  -4968.542951   -470.226189
PE36  -2732.914251 -26157.534445 -13588.264231    712.422194
PG01 -13572.265249   8319.026470  21017.962165    -15.935932
PG02  13863.793611  15503.135753 -16003.193636   -212.723871
PG03 -23128.577979  11864.839752   5191.540145    187.954274
PG04  -2057.171443  15671.289623 -21333.159760    160.011651
PG05  17795.536839   4128.787341 -19468.451148      0.922545
PG06   6912.286262  24706.094711  -6756.485338    205.990675
PG07  -7833.952310  21174.039196 -13342.924028    -23.897666
PG08 -24708.702008  -4151.488914   9157.583470   -143.513187
PG09  -8943.840712  12782.794471 -21536.211830    411.629390
PG10   3039.632182 -18339.935147  18958.030519     46.833286
PG11 -15972.383326   3995.498645  20282.191660   -607.058903
PG12  23792.844033  -9725.756218   6099.479824    242.626398
PG13  23233.842339  12730.253965   2104.569647    -63.731332
PG14 -15346.688763 -18320.528917  12103.508328    -80.553998
PG15  24864.468750   1206.674786   9531.557439   -313.103857
PG16 -17929.292844  -4520.921985 -19418.164221    -39.944298
PG17   7508.047527  17922.858252  18553.635446     54.462628
PG18 -15375.658690  -1962.657646  21093.833800     52.985343
PG19  14653.669901  18172.065790  12290.277306   -319.204840
PG20  10830.110410 -21256.790018  11415.332792    524.703380
PG21   2356.017404 -24884.244100  -8397.732598   -193.167695
PG22 -22671.587477   6624.333157  12309.243432   -700.571714
PG23 -20339.384865   4106.465704 -16468.119935   -186.289329
PG24  15002.867366  -4758.021102  21216.443206    -66.072429
PG25  18900.161720 -17732.782079  -5368.869855   -756.051268
PG26  -9306.372990 -12305.141514 -21640.116920    200.932395
PG27 -23658.585377 -12298.202554  -1930.692936   -131.460912
PG28  -5196.558578  18012.810914  19458.838714    767.828137
PG29  13733.300787  -8468.888241 -21132.927101    202.064254
PG30  -1080.174018  26236.620371  -3204.365967   -104.300838
PG31  -7312.408221 -23894.556278  -8310.589972     38.301432
PG32 -10438.397576 -17781.077597  16864.788285    -88.514001
PR01  24143.523295    560.862498  -8230.970155     43.770902
PR02  20829.444498  -8365.184983  12113.114203    368.475995
PR03   4624.224082 -11367.657651  22401.541197     -4.869123
PR04 -14724.331707  -7474.008489  19469.964499    306.197474
PR05 -24810.852466    350.211353   5970.993706     28.068700
PR07  -4173.147521  11319.068988 -22438.781777    -19.958073
PR08  14035.594459   7738.428722 -19783.408010     17.777189
PR09 -13190.520526  19786.065513  -9127.339775     69.590311
PR10  -7097.244744  23632.219847   6273.946095     49.747605
PR11   4516.801643  14595.748877  20421.439648    -66.053580
PR13  13241.567016 -18904.604186  10846.150145    -23.611622
PR14   6761.728662 -23762.154281  -6373.336030     38.923313
PR15  -3793.821194 -15300.264315 -20037.603478    101.942569
PR16 -12443.924244   2401.357323 -22181.664378      9.538734
PR17  -4312.460947 -18604.284838 -16886.476358    227.714940
PR18 -14771.922893 -20786.425807  -1447.624920     -6.904249
PR19 -16876.653375 -12163.567946  14763.556305    -30.572049
PR20  -8977.197310   5369.835468  23271.117128   -378.020255
PR21   4847.319901  18887.509781  16455.234372    -47.935568
PR22  15619.681750  20038.586115  -1268.278411    -19.074647
PR23  15928.578229   7420.436195 -18495.155729    227.858004
PR24   7696.523891  -7200.098476 -23255.201799   -180.424543
PR26 -10546.455504   3209.497787  23011.148806  -4614.718759
EOF
